{"type":"FeatureCollection","features":[{"type":"Feature","properties":{"FACILITY_NAME":"Arkansas Loop & Simpson Treating Plants","GHGRP_ID":1001760,"ADDRESS":"","CITY":"DURANGO","COUNTY NAME":"La Plata","STATE":"CO","ZIP":81303,"GHG_QUANTITY":200511,"TYPE":"pe"},"geometry":{"type":"Point","coordinates":[-107.7855,37.0532]}},{"type":"Feature","properties":{"FACILITY_NAME":"Atmel Corporation","GHGRP_ID":1009792,"ADDRESS":"1150 E. Cheyenne Mountain Boulevard","CITY":"Colorado Springs","COUNTY NAME":"EL PASO","STATE":"CO","ZIP":80906,"GHG_QUANTITY":264292,"TYPE":"pe"},"geometry":{"type":"Point","coordinates":[-104.805626,38.789076]}},{"type":"Feature","properties":{"FACILITY_NAME":"Avago Technologies","GHGRP_ID":1008734,"ADDRESS":"4380 Ziegler Road","CITY":"Fort Collins","COUNTY NAME":"LARIMER COUNTY","STATE":"CO","ZIP":80525,"GHG_QUANTITY":287709,"TYPE":"pe"},"geometry":{"type":"Point","coordinates":[-105.02021,40.5236]}},{"type":"Feature","properties":{"FACILITY_NAME":"BARGATH, INC.- PARACHUTE","GHGRP_ID":1002943,"ADDRESS":"","CITY":"PARACHUTE, 3.4 MI NW OF","COUNTY NAME":"Garfield","STATE":"CO","ZIP":81635,"GHG_QUANTITY":233733,"TYPE":"pe"},"geometry":{"type":"Point","coordinates":[-108.111356,39.487297]}},{"type":"Feature","properties":{"FACILITY_NAME":"BOULDER LANDFILL","GHGRP_ID":1006661,"ADDRESS":"1600 SOUTH 66TH STREET","CITY":"BOULDER","COUNTY NAME":"BOULDER","STATE":"CO","ZIP":80303,"GHG_QUANTITY":8557,"TYPE":"pe"},"geometry":{"type":"Point","coordinates":[-105.2,39.95]}},{"type":"Feature","properties":{"FACILITY_NAME":"BOWIE NO. 2 MINE","GHGRP_ID":1007215,"ADDRESS":"43659 Bowie Road","CITY":"PAONIA","COUNTY NAME":"DELTA COUNTY","STATE":"CO","ZIP":81428,"GHG_QUANTITY":514703,"TYPE":"pe"},"geometry":{"type":"Point","coordinates":[-107.54603,38.93268]}},{"type":"Feature","properties":{"FACILITY_NAME":"BROADACRE LANDFILL - FOUNTAIN LANDFILL","GHGRP_ID":1006464,"ADDRESS":"10000 SQUIRREL CREEK RD","CITY":"FOUNTAIN","COUNTY NAME":"EL PASO","STATE":"CO","ZIP":80817,"GHG_QUANTITY":59590,"TYPE":"pe"},"geometry":{"type":"Point","coordinates":[-104.628161,38.679516]}},{"type":"Feature","properties":{"FACILITY_NAME":"Big Hole Compressor Station","GHGRP_ID":1011077,"ADDRESS":"37607 County Road 7","CITY":"Craig","COUNTY NAME":"MOFFAT COUNTY","STATE":"CO","ZIP":81625,"GHG_QUANTITY":559,"TYPE":"pe"},"geometry":{"type":"Point","coordinates":[-107.763621,40.768594]}},{"type":"Feature","properties":{"FACILITY_NAME":"CARGILL MEAT SOLUTIONS CORPORATION","GHGRP_ID":1000357,"ADDRESS":"1505 EAST BURLINGTON AVENUE","CITY":"FORT MORGAN","COUNTY NAME":"MORGAN COUNTY","STATE":"CO","ZIP":80701,"GHG_QUANTITY":1625,"TYPE":"pe"},"geometry":{"type":"Point","coordinates":[-103.7756,40.2469]}},{"type":"Feature","properties":{"FACILITY_NAME":"CEMEX CONSTRUCTION MATERIALS SOUTH LLC","GHGRP_ID":1007877,"ADDRESS":"5134 UTE HIGHWAY","CITY":"LYONS","COUNTY NAME":"BOULDER","STATE":"CO","ZIP":80540,"GHG_QUANTITY":207521,"TYPE":"pe"},"geometry":{"type":"Point","coordinates":[-105.236697,40.202236]}},{"type":"Feature","properties":{"FACILITY_NAME":"CENTRAL WELD SANITARY LANDFILL","GHGRP_ID":1003798,"ADDRESS":"6037 E 77TH AVE","CITY":"GREELEY","COUNTY NAME":"WELD COUNTY","STATE":"CO","ZIP":80634,"GHG_QUANTITY":23479,"TYPE":"pe"},"geometry":{"type":"Point","coordinates":[-104.80878,40.35201]}},{"type":"Feature","properties":{"FACILITY_NAME":"CF & I STEEL L P/ DBA ROCKY MOUNTAIN STEEL MILLS","GHGRP_ID":1003902,"ADDRESS":"2100 SOUTH FREEWAY","CITY":"PUEBLO","COUNTY NAME":"PUEBLO","STATE":"CO","ZIP":81004,"GHG_QUANTITY":150380,"TYPE":"pe"},"geometry":{"type":"Point","coordinates":[-104.607257,38.232627]}},{"type":"Feature","properties":{"FACILITY_NAME":"CIG Station 5320 Fort Lupton, CO","GHGRP_ID":1010489,"ADDRESS":"15732 Weld County Road 16","CITY":"Ft. Lupton","COUNTY NAME":"WELD","STATE":"CO","ZIP":80261,"GHG_QUANTITY":20842,"TYPE":"pe"},"geometry":{"type":"Point","coordinates":[-104.758947,40.130922]}},{"type":"Feature","properties":{"FACILITY_NAME":"CIG Station 5560 Kit Carson, CO","GHGRP_ID":1001994,"ADDRESS":"3073 US HIGHWAY 287","CITY":"EADS","COUNTY NAME":"KIOWA","STATE":"CO","ZIP":81036,"GHG_QUANTITY":9174,"TYPE":"pe"},"geometry":{"type":"Point","coordinates":[-102.759485,38.413345]}},{"type":"Feature","properties":{"FACILITY_NAME":"CIG Station 5610 Greasewood, CO","GHGRP_ID":1008151,"ADDRESS":"5200 County Road 3","CITY":"Rifle","COUNTY NAME":"GARFIELD","STATE":"CO","ZIP":81650,"GHG_QUANTITY":4779,"TYPE":"pe"},"geometry":{"type":"Point","coordinates":[-108.105434,39.854648]}},{"type":"Feature","properties":{"FACILITY_NAME":"CIG Station 5850 Cheyenne, CO","GHGRP_ID":1002127,"ADDRESS":"65657 Highway 85","CITY":"CARR","COUNTY NAME":"WELD","STATE":"CO","ZIP":80612,"GHG_QUANTITY":32,"TYPE":"pe"},"geometry":{"type":"Point","coordinates":[-104.892167,40.908951]}},{"type":"Feature","properties":{"FACILITY_NAME":"CIG Station 5950 Watkins, CO","GHGRP_ID":1002061,"ADDRESS":"24650 East Smith Road","CITY":"AURORA","COUNTY NAME":"ADAMS","STATE":"CO","ZIP":80019,"GHG_QUANTITY":12254,"TYPE":"pe"},"geometry":{"type":"Point","coordinates":[-104.698908,39.745283]}},{"type":"Feature","properties":{"FACILITY_NAME":"Central Treating Facility","GHGRP_ID":1004824,"ADDRESS":"","CITY":"Meeker","COUNTY NAME":"Rio Blanco","STATE":"CO","ZIP":81641,"GHG_QUANTITY":52341,"TYPE":"pe"},"geometry":{"type":"Point","coordinates":[-108.2957,39.8338]}},{"type":"Feature","properties":{"FACILITY_NAME":"Colorado Natural Gas, Inc.","GHGRP_ID":1005703,"ADDRESS":"7810 Shaffer Pkwy Suite 120","CITY":"Littleton","COUNTY NAME":"JEFFERSON COUNTY","STATE":"CO","ZIP":80127,"GHG_QUANTITY":123663,"TYPE":"pe"},"geometry":{"type":"Point","coordinates":[-105.13261,39.57476]}},{"type":"Feature","properties":{"FACILITY_NAME":"Colorado Springs Landfill","GHGRP_ID":1008019,"ADDRESS":"1010 Blaney Road","CITY":"Colorado Springs","COUNTY NAME":"EL PASO","STATE":"CO","ZIP":80929,"GHG_QUANTITY":173226,"TYPE":"pe"},"geometry":{"type":"Point","coordinates":[-104.572053,38.847491]}},{"type":"Feature","properties":{"FACILITY_NAME":"Compressor Station 601","GHGRP_ID":1002406,"ADDRESS":"37500 County Rd 78","CITY":"Peetz","COUNTY NAME":"LOGAN","STATE":"CO","ZIP":80747,"GHG_QUANTITY":434,"TYPE":"pe"},"geometry":{"type":"Point","coordinates":[-102.855976,40.994389]}},{"type":"Feature","properties":{"FACILITY_NAME":"Coyote Gulch Treating Plant","GHGRP_ID":1001946,"ADDRESS":"","CITY":"DURANGO","COUNTY NAME":"La Plata","STATE":"CO","ZIP":81301,"GHG_QUANTITY":121267,"TYPE":"pe"},"geometry":{"type":"Point","coordinates":[-108.0615,37.0141]}},{"type":"Feature","properties":{"FACILITY_NAME":"DEBEQUE GAS PROCESSING FACILITY","GHGRP_ID":1011635,"ADDRESS":"","CITY":"De Beque","COUNTY NAME":"Mesa","STATE":"CO","ZIP":81630,"GHG_QUANTITY":3163,"TYPE":"pe"},"geometry":{"type":"Point","coordinates":[-108.2431,39.3269]}},{"type":"Feature","properties":{"FACILITY_NAME":"DENVER ARAPAHOE DISPOSAL SITE-A WASTE MANAGEMENT COMPANY","GHGRP_ID":1007709,"ADDRESS":"3500 SOUTH GUN CLUB ROAD","CITY":"AURORA","COUNTY NAME":"ARAPAHOE COUNTY","STATE":"CO","ZIP":80018,"GHG_QUANTITY":52779,"TYPE":"pe"},"geometry":{"type":"Point","coordinates":[-104.70914,39.64566]}},{"type":"Feature","properties":{"FACILITY_NAME":"DENVER REGIONAL LANDFILL","GHGRP_ID":1005633,"ADDRESS":"1441 WELD COUNTY ROAD 6","CITY":"ERIE","COUNTY NAME":"BOULDER","STATE":"CO","ZIP":80516,"GHG_QUANTITY":242127,"TYPE":"pe"},"geometry":{"type":"Point","coordinates":[-105.027726,40.024535]}},{"type":"Feature","properties":{"FACILITY_NAME":"Denver Regional North Landfill","GHGRP_ID":1007700,"ADDRESS":"1441 Weld County Rd 6","CITY":"Erie","COUNTY NAME":"BOULDER","STATE":"CO","ZIP":80516,"GHG_QUANTITY":2973,"TYPE":"pe"},"geometry":{"type":"Point","coordinates":[-105.027726,40.024535]}},{"type":"Feature","properties":{"FACILITY_NAME":"EAGLE COUNTY LANDFILL","GHGRP_ID":1005844,"ADDRESS":"815 Ute Creek Road ","CITY":"WOLCOTT","COUNTY NAME":"EAGLE","STATE":"CO","ZIP":81655,"GHG_QUANTITY":49864,"TYPE":"pe"},"geometry":{"type":"Point","coordinates":[-106.66336,39.72233]}},{"type":"Feature","properties":{"FACILITY_NAME":"ENCANA OIL AND GAS USA - DRAGON TRAIL GAS PLANT - 08-103-00036","GHGRP_ID":1003447,"ADDRESS":"3606 COUNTY ROAD 116","CITY":"RANGELY","COUNTY NAME":"RIO BLANCO","STATE":"CO","ZIP":81648,"GHG_QUANTITY":17343,"TYPE":"pe"},"geometry":{"type":"Point","coordinates":[-108.915996,39.859473]}},{"type":"Feature","properties":{"FACILITY_NAME":"EPNG Station 6210 Bondad","GHGRP_ID":1002116,"ADDRESS":"2227 County Road 318","CITY":"Ignacio","COUNTY NAME":"LA PLATA","STATE":"CO","ZIP":81137,"GHG_QUANTITY":3979,"TYPE":"pe"},"geometry":{"type":"Point","coordinates":[-107.769381,37.096339]}},{"type":"Feature","properties":{"FACILITY_NAME":"FOOTHILLS LANDFILL","GHGRP_ID":1006758,"ADDRESS":"8900 93 HWY","CITY":"GOLDEN","COUNTY NAME":"JEFFERSON","STATE":"CO","ZIP":80403,"GHG_QUANTITY":27993,"TYPE":"pe"},"geometry":{"type":"Point","coordinates":[-105.227345,39.850794]}},{"type":"Feature","properties":{"FACILITY_NAME":"FRONT RANGE LANDFILL","GHGRP_ID":1003911,"ADDRESS":"1830 WELD COUNTY ROAD 5","CITY":"ERIE","COUNTY NAME":"BOULDER","STATE":"CO","ZIP":80516,"GHG_QUANTITY":168471,"TYPE":"pe"},"geometry":{"type":"Point","coordinates":[-105.018265,40.026864]}},{"type":"Feature","properties":{"FACILITY_NAME":"Florida River Gas Processing Facility","GHGRP_ID":1003223,"ADDRESS":"2906 CR 307","CITY":"Durango","COUNTY NAME":"LA PLATA","STATE":"CO","ZIP":81303,"GHG_QUANTITY":85450,"TYPE":"pe"},"geometry":{"type":"Point","coordinates":[-107.77978,37.15639]}},{"type":"Feature","properties":{"FACILITY_NAME":"Fort Lupton Compressor Station","GHGRP_ID":1001977,"ADDRESS":"","CITY":"Brighton","COUNTY NAME":"Weld","STATE":"CO","ZIP":80601,"GHG_QUANTITY":66392,"TYPE":"pe"},"geometry":{"type":"Point","coordinates":[-104.7515,40.1434]}},{"type":"Feature","properties":{"FACILITY_NAME":"GCC RIO GRANDE INC","GHGRP_ID":1003067,"ADDRESS":"3372 LIME ROAD","CITY":"PUEBLO","COUNTY NAME":"PUEBLO","STATE":"CO","ZIP":81004,"GHG_QUANTITY":654260,"TYPE":"pe"},"geometry":{"type":"Point","coordinates":[-104.62595,38.1507]}},{"type":"Feature","properties":{"FACILITY_NAME":"GREELEY GAS PLANT","GHGRP_ID":1006310,"ADDRESS":"3009 WEST 49TH STREET","CITY":"GREELEY","COUNTY NAME":"WELD COUNTY","STATE":"CO","ZIP":80634,"GHG_QUANTITY":8445,"TYPE":"pe"},"geometry":{"type":"Point","coordinates":[-104.76003,40.38812]}},{"type":"Feature","properties":{"FACILITY_NAME":"Holcim (US) Inc. - Portland Plant","GHGRP_ID":1003008,"ADDRESS":"3500 Highway 120","CITY":"Florence","COUNTY NAME":"FREMONT","STATE":"CO","ZIP":81226,"GHG_QUANTITY":1051099,"TYPE":"pe"},"geometry":{"type":"Point","coordinates":[-105.039244,38.386936]}},{"type":"Feature","properties":{"FACILITY_NAME":"IGNACIO GAS PLANT","GHGRP_ID":1002532,"ADDRESS":"3746 CR 307","CITY":"DURANGO","COUNTY NAME":"LA PLATA","STATE":"CO","ZIP":81301,"GHG_QUANTITY":186221,"TYPE":"pe"},"geometry":{"type":"Point","coordinates":[-107.784839,37.144682]}},{"type":"Feature","properties":{"FACILITY_NAME":"Koch Meeker Gas Plant","GHGRP_ID":1010030,"ADDRESS":"929 Penny Dr","CITY":"Meeker","COUNTY NAME":"RIO BLANCO COUNTY","STATE":"CO","ZIP":81641,"GHG_QUANTITY":21666,"TYPE":"pe"},"geometry":{"type":"Point","coordinates":[-107.763621,39.977742]}},{"type":"Feature","properties":{"FACILITY_NAME":"LA PLATA \\A\\ CMP STN","GHGRP_ID":1005882,"ADDRESS":"3775 COUNTY ROAD 307","CITY":"DURANGO","COUNTY NAME":"LA PLATA","STATE":"CO","ZIP":81301,"GHG_QUANTITY":16312,"TYPE":"pe"},"geometry":{"type":"Point","coordinates":[-107.786771,37.143579]}},{"type":"Feature","properties":{"FACILITY_NAME":"LARIMER COUNTY LANDFILL","GHGRP_ID":1005928,"ADDRESS":"5887 SOUTH TAFT HILL ROAD","CITY":"FORT COLLINS","COUNTY NAME":"LARIMER COUNTY","STATE":"CO","ZIP":80526,"GHG_QUANTITY":142325,"TYPE":"pe"},"geometry":{"type":"Point","coordinates":[-105.12032,40.49803]}},{"type":"Feature","properties":{"FACILITY_NAME":"LUCERNE GAS PLANT","GHGRP_ID":1002355,"ADDRESS":"31495 COUNTY ROAD 43","CITY":"GREELEY","COUNTY NAME":"WELD","STATE":"CO","ZIP":80631,"GHG_QUANTITY":37744,"TYPE":"pe"},"geometry":{"type":"Point","coordinates":[-104.664686,40.457201]}},{"type":"Feature","properties":{"FACILITY_NAME":"MESA COUNTY LANDFILL","GHGRP_ID":1006977,"ADDRESS":"3071 COLO HWY 50","CITY":"GRAND JUNCTION","COUNTY NAME":"MESA","STATE":"CO","ZIP":81503,"GHG_QUANTITY":80103,"TYPE":"pe"},"geometry":{"type":"Point","coordinates":[-108.49194,39.01261]}},{"type":"Feature","properties":{"FACILITY_NAME":"MEWBOURN GAS PLANT","GHGRP_ID":1006131,"ADDRESS":"18455 WELD COUNTY RD 35","CITY":"GILCREST","COUNTY NAME":"WELD","STATE":"CO","ZIP":80623,"GHG_QUANTITY":72738,"TYPE":"pe"},"geometry":{"type":"Point","coordinates":[-104.734944,40.266583]}},{"type":"Feature","properties":{"FACILITY_NAME":"MONTROSE COUNTY LANDFILL","GHGRP_ID":1007592,"ADDRESS":"67999 LANDFILL RD.","CITY":"MONTROSE","COUNTY NAME":"MONTROSE COUNTY","STATE":"CO","ZIP":81401,"GHG_QUANTITY":55670,"TYPE":"pe"},"geometry":{"type":"Point","coordinates":[-107.82121,38.52354]}},{"type":"Feature","properties":{"FACILITY_NAME":"Meeker Compressor Station","GHGRP_ID":1002912,"ADDRESS":"26100 CR 5","CITY":"Rifle","COUNTY NAME":"GARFIELD","STATE":"CO","ZIP":81650,"GHG_QUANTITY":2006,"TYPE":"pe"},"geometry":{"type":"Point","coordinates":[-108.290437,39.891773]}},{"type":"Feature","properties":{"FACILITY_NAME":"Meeker Gas Plant","GHGRP_ID":1004822,"ADDRESS":"27991 County Rd 5","CITY":"Rifle","COUNTY NAME":"GARFIELD","STATE":"CO","ZIP":81650,"GHG_QUANTITY":258404,"TYPE":"pe"},"geometry":{"type":"Point","coordinates":[-108.294316,39.910727]}},{"type":"Feature","properties":{"FACILITY_NAME":"Midway Landfill","GHGRP_ID":1007863,"ADDRESS":"8925 Rancho Colorado Boulevard","CITY":"Fountain","COUNTY NAME":"PUEBLO","STATE":"CO","ZIP":80817,"GHG_QUANTITY":116502,"TYPE":"pe"},"geometry":{"type":"Point","coordinates":[-104.661847,38.547492]}},{"type":"Feature","properties":{"FACILITY_NAME":"NORTH WELD SANITARY LANDFILL","GHGRP_ID":1007880,"ADDRESS":"40000 WELD COUNTY RD 25","CITY":"AULT","COUNTY NAME":"WELD","STATE":"CO","ZIP":80610,"GHG_QUANTITY":135048,"TYPE":"pe"},"geometry":{"type":"Point","coordinates":[-104.8318,40.58156]}},{"type":"Feature","properties":{"FACILITY_NAME":"O'Connor Gas Plant","GHGRP_ID":1010119,"ADDRESS":"","CITY":"LaSalle","COUNTY NAME":"Weld","STATE":"CO","ZIP":80645,"GHG_QUANTITY":46781,"TYPE":"pe"},"geometry":{"type":"Point","coordinates":[-104.587772,40.352206]}},{"type":"Feature","properties":{"FACILITY_NAME":"OWENS-BROCKWAY GLASS CONTAINER INC PLANT 28","GHGRP_ID":1001975,"ADDRESS":"11133 Eastman Park Drive","CITY":"Windsor","COUNTY NAME":"WELD COUNTY","STATE":"CO","ZIP":80550,"GHG_QUANTITY":31321,"TYPE":"pe"},"geometry":{"type":"Point","coordinates":[-104.849165,40.461452]}},{"type":"Feature","properties":{"FACILITY_NAME":"Oxbow Mining, LLC","GHGRP_ID":1009623,"ADDRESS":"3737 Highway 133","CITY":"Somerset","COUNTY NAME":"GUNNISON COUNTY","STATE":"CO","ZIP":81434,"GHG_QUANTITY":19769,"TYPE":"pe"},"geometry":{"type":"Point","coordinates":[-107.470007,38.926289]}},{"type":"Feature","properties":{"FACILITY_NAME":"PLATTEVILLE GAS PLANT","GHGRP_ID":1005678,"ADDRESS":"13675 WELD COUNTY ROAD 34","CITY":"PLATTEVILLE","COUNTY NAME":"WELD","STATE":"CO","ZIP":80651,"GHG_QUANTITY":2588,"TYPE":"pe"},"geometry":{"type":"Point","coordinates":[-104.798221,40.232045]}},{"type":"Feature","properties":{"FACILITY_NAME":"Plateville Compressor Station","GHGRP_ID":1006880,"ADDRESS":"","CITY":"Brighton","COUNTY NAME":"Weld","STATE":"CO","ZIP":80601,"GHG_QUANTITY":12656,"TYPE":"pe"},"geometry":{"type":"Point","coordinates":[-104.7196,40.2235]}},{"type":"Feature","properties":{"FACILITY_NAME":"Public Service Company of Colorado","GHGRP_ID":1002895,"ADDRESS":"1800 Larimer Street","CITY":"Denver","COUNTY NAME":"DENVER COUNTY","STATE":"CO","ZIP":80202,"GHG_QUANTITY":206534,"TYPE":"pe"},"geometry":{"type":"Point","coordinates":[-104.99457,39.75125]}},{"type":"Feature","properties":{"FACILITY_NAME":"ROCKY MOUNTAIN BOTTLE COMPANY","GHGRP_ID":1003465,"ADDRESS":"10619 W 50TH AVE","CITY":"WHEAT RIDGE","COUNTY NAME":"JEFFERSON COUNTY","STATE":"CO","ZIP":80033,"GHG_QUANTITY":29774,"TYPE":"pe"},"geometry":{"type":"Point","coordinates":[-105.11498,39.78741]}},{"type":"Feature","properties":{"FACILITY_NAME":"ROGGEN GAS PLANT","GHGRP_ID":1002031,"ADDRESS":"35409 WELD COUNTY ROAD 18","CITY":"ROGGEN","COUNTY NAME":"WELD","STATE":"CO","ZIP":80652,"GHG_QUANTITY":3726,"TYPE":"pe"},"geometry":{"type":"Point","coordinates":[-104.387444,40.117556]}},{"type":"Feature","properties":{"FACILITY_NAME":"Rangely Gas Plant","GHGRP_ID":1009244,"ADDRESS":"100 Chevron Road","CITY":"Rangely","COUNTY NAME":"","STATE":"CO","ZIP":81648,"GHG_QUANTITY":5518,"TYPE":"pe"},"geometry":{"type":"Point","coordinates":[-108.8670246,40.1064831]}},{"type":"Feature","properties":{"FACILITY_NAME":"SPINDLE GAS PROCESSING PLANT","GHGRP_ID":1002415,"ADDRESS":"9101 WELD COUNTY RD 14","CITY":"FT LUPTON","COUNTY NAME":"WELD","STATE":"CO","ZIP":80621,"GHG_QUANTITY":2694,"TYPE":"pe"},"geometry":{"type":"Point","coordinates":[-104.884194,40.088944]}},{"type":"Feature","properties":{"FACILITY_NAME":"SUMMIT COUNTY LANDFILL","GHGRP_ID":1005695,"ADDRESS":"639 LANDFILL RD","CITY":"DILLON AREA","COUNTY NAME":"SUMMIT","STATE":"CO","ZIP":80435,"GHG_QUANTITY":32853,"TYPE":"pe"},"geometry":{"type":"Point","coordinates":[-105.997922,39.608712]}},{"type":"Feature","properties":{"FACILITY_NAME":"SUNCOR ENERGY (USA) COMMERCE CITY REFINERY","GHGRP_ID":1007923,"ADDRESS":"5801 BRIGHTON BLVD","CITY":"COMMERCE CITY","COUNTY NAME":"ADAMS","STATE":"CO","ZIP":80022,"GHG_QUANTITY":404184,"TYPE":"pe"},"geometry":{"type":"Point","coordinates":[-104.944444,39.805556]}},{"type":"Feature","properties":{"FACILITY_NAME":"SourceGas, LLC - Arkansas","GHGRP_ID":1006604,"ADDRESS":"600 12th Street; Suite 300","CITY":"Golden","COUNTY NAME":"JEFFERSON","STATE":"CO","ZIP":80401,"GHG_QUANTITY":61305,"TYPE":"pe"},"geometry":{"type":"Point","coordinates":[-105.135202,39.722098]}},{"type":"Feature","properties":{"FACILITY_NAME":"SourceGas, LLC - Colorado","GHGRP_ID":1004607,"ADDRESS":"600 12th Street; Suite 300","CITY":"Golden","COUNTY NAME":"JEFFERSON","STATE":"CO","ZIP":80401,"GHG_QUANTITY":16043,"TYPE":"pe"},"geometry":{"type":"Point","coordinates":[-105.135202,39.722098]}},{"type":"Feature","properties":{"FACILITY_NAME":"SourceGas, LLC - Nebraska","GHGRP_ID":1006605,"ADDRESS":"600 12th Street; Suite 300","CITY":"Golden","COUNTY NAME":"JEFFERSON","STATE":"CO","ZIP":80401,"GHG_QUANTITY":21233,"TYPE":"pe"},"geometry":{"type":"Point","coordinates":[-105.135202,39.722098]}},{"type":"Feature","properties":{"FACILITY_NAME":"SourceGas, LLC - Wyoming","GHGRP_ID":1006603,"ADDRESS":"600 12th Street; Suite 300","CITY":"Golden","COUNTY NAME":"JEFFERSON","STATE":"CO","ZIP":80401,"GHG_QUANTITY":10277,"TYPE":"pe"},"geometry":{"type":"Point","coordinates":[-105.135202,39.722098]}},{"type":"Feature","properties":{"FACILITY_NAME":"Sterling Energy Investments LLC Centennial Gas Plant","GHGRP_ID":1011986,"ADDRESS":"47285 County Road 100","CITY":"Briggsdale","COUNTY NAME":"","STATE":"CO","ZIP":80611,"GHG_QUANTITY":11314,"TYPE":"pe"},"geometry":{"type":"Point","coordinates":[-104.285426,40.711642]}},{"type":"Feature","properties":{"FACILITY_NAME":"Summit Natural Gas of Maine","GHGRP_ID":1011282,"ADDRESS":"7810 Shaffer Parkway","CITY":"Littleton","COUNTY NAME":"JEFFERSON COUNTY","STATE":"CO","ZIP":80127,"GHG_QUANTITY":17905,"TYPE":"pe"},"geometry":{"type":"Point","coordinates":[-105.13261,39.57476]}},{"type":"Feature","properties":{"FACILITY_NAME":"Summit Natural Gas of Missouri","GHGRP_ID":1009519,"ADDRESS":"7810 Shaffer Pkwy Suite 120","CITY":"Littleton","COUNTY NAME":"JEFFERSON COUNTY","STATE":"CO","ZIP":80127,"GHG_QUANTITY":108273,"TYPE":"pe"},"geometry":{"type":"Point","coordinates":[-105.13261,39.57476]}},{"type":"Feature","properties":{"FACILITY_NAME":"TOWER LANDFILL INC","GHGRP_ID":1006044,"ADDRESS":"8480 TOWER ROAD","CITY":"COMMERCE CITY","COUNTY NAME":"DENVER","STATE":"CO","ZIP":80022,"GHG_QUANTITY":22930,"TYPE":"pe"},"geometry":{"type":"Point","coordinates":[-104.767499,39.853416]}},{"type":"Feature","properties":{"FACILITY_NAME":"Twentymile Mine","GHGRP_ID":1001682,"ADDRESS":"29515 Route County Road #27","CITY":"Oak Creek","COUNTY NAME":"ROUTT COUNTY","STATE":"CO","ZIP":80467,"GHG_QUANTITY":10375,"TYPE":"pe"},"geometry":{"type":"Point","coordinates":[-107.081476,40.334417]}},{"type":"Feature","properties":{"FACILITY_NAME":"Twin Landfill Corporation","GHGRP_ID":1006834,"ADDRESS":"20650 County Road 205","CITY":"Milner","COUNTY NAME":"ROUTT COUNTY","STATE":"CO","ZIP":80487,"GHG_QUANTITY":46029,"TYPE":"pe"},"geometry":{"type":"Point","coordinates":[-107.04,40.474444]}},{"type":"Feature","properties":{"FACILITY_NAME":"WASTE MGMT OF CO INC County Line","GHGRP_ID":1007907,"ADDRESS":"4200 E COUNTY LINE RD","CITY":"LITTLETON","COUNTY NAME":"DOUGLAS","STATE":"CO","ZIP":80126,"GHG_QUANTITY":5647,"TYPE":"pe"},"geometry":{"type":"Point","coordinates":[-104.9335,39.5636]}},{"type":"Feature","properties":{"FACILITY_NAME":"WESTERN SUGAR COOP","GHGRP_ID":1001823,"ADDRESS":"18317 HIGHWAY 144","CITY":"FORT MORGAN","COUNTY NAME":"MORGAN","STATE":"CO","ZIP":80701,"GHG_QUANTITY":0,"TYPE":"pe"},"geometry":{"type":"Point","coordinates":[-103.80612,40.26269]}},{"type":"Feature","properties":{"FACILITY_NAME":"WIC Station 7938 Snake River, CO","GHGRP_ID":1008148,"ADDRESS":"18640 County Road 4","CITY":"Craig","COUNTY NAME":"MOFFAT COUNTY","STATE":"CO","ZIP":81625,"GHG_QUANTITY":1716,"TYPE":"pe"},"geometry":{"type":"Point","coordinates":[-107.71353,40.97969]}},{"type":"Feature","properties":{"FACILITY_NAME":"WILLOW CREEK GAS PLANT","GHGRP_ID":1002319,"ADDRESS":"20219 County Road 5","CITY":"Rifle","COUNTY NAME":"RIO BLANCO","STATE":"CO","ZIP":81650,"GHG_QUANTITY":185969,"TYPE":"pe"},"geometry":{"type":"Point","coordinates":[-107.763621,39.977742]}},{"type":"Feature","properties":{"FACILITY_NAME":"Wattenberg Gas Plant","GHGRP_ID":1003254,"ADDRESS":"1909 Powhaton Road","CITY":"Aurora","COUNTY NAME":"ADAMS","STATE":"CO","ZIP":80019,"GHG_QUANTITY":18031,"TYPE":"pe"},"geometry":{"type":"Point","coordinates":[-104.681535,39.746431]}},{"type":"Feature","properties":{"FACILITY_NAME":"West Elk Mine","GHGRP_ID":1010310,"ADDRESS":"5174 Highway 133","CITY":"Somerset","COUNTY NAME":"GUNNISON COUNTY","STATE":"CO","ZIP":81434,"GHG_QUANTITY":485108,"TYPE":"pe"},"geometry":{"type":"Point","coordinates":[-107.44687,38.92823]}},{"type":"Feature","properties":{"FACILITY_NAME":"XTO - PICEANCE CREEK","GHGRP_ID":1002673,"ADDRESS":"","CITY":"MEEKER","COUNTY NAME":"Rio Blanco","STATE":"CO","ZIP":81641,"GHG_QUANTITY":17350,"TYPE":"pe"},"geometry":{"type":"Point","coordinates":[-108.1947,39.8933]}},{"type":"Feature","properties":{"FACILITY_NAME":"AMERICAN GYPSUM COMPANY","GHGRP_ID":1007404,"ADDRESS":"740 Highway #6","CITY":"GYPSUM","COUNTY NAME":"EAGLE","STATE":"CO","ZIP":81637,"GHG_QUANTITY":55649,"TYPE":"fc"},"geometry":{"type":"Point","coordinates":[-106.939169,39.66067]}},{"type":"Feature","properties":{"FACILITY_NAME":"ANHEUSER BUSCH INCORPORATED FORT COLLINS BREWERY","GHGRP_ID":1003352,"ADDRESS":"2351 BUSCH DRIVE","CITY":"FORT COLLINS","COUNTY NAME":"LARIMER","STATE":"CO","ZIP":80524,"GHG_QUANTITY":51003,"TYPE":"fc"},"geometry":{"type":"Point","coordinates":[-105.006111,40.619722]}},{"type":"Feature","properties":{"FACILITY_NAME":"Arapahoe Combustion Turbine Facility","GHGRP_ID":1001360,"ADDRESS":"2601 SOUTH PLATTE RIVER ROAD","CITY":"DENVER","COUNTY NAME":"Denver","STATE":"CO","ZIP":80223,"GHG_QUANTITY":58691,"TYPE":"fc"},"geometry":{"type":"Point","coordinates":[-105.0018,39.6692]}},{"type":"Feature","properties":{"FACILITY_NAME":"Arkansas Loop & Simpson Treating Plants","GHGRP_ID":1001760,"ADDRESS":"","CITY":"DURANGO","COUNTY NAME":"La Plata","STATE":"CO","ZIP":81303,"GHG_QUANTITY":75195,"TYPE":"fc"},"geometry":{"type":"Point","coordinates":[-107.7855,37.0532]}},{"type":"Feature","properties":{"FACILITY_NAME":"Atmel Corporation","GHGRP_ID":1009792,"ADDRESS":"1150 E. Cheyenne Mountain Boulevard","CITY":"Colorado Springs","COUNTY NAME":"EL PASO","STATE":"CO","ZIP":80906,"GHG_QUANTITY":16284,"TYPE":"fc"},"geometry":{"type":"Point","coordinates":[-104.805626,38.789076]}},{"type":"Feature","properties":{"FACILITY_NAME":"Avago Technologies","GHGRP_ID":1008734,"ADDRESS":"4380 Ziegler Road","CITY":"Fort Collins","COUNTY NAME":"LARIMER COUNTY","STATE":"CO","ZIP":80525,"GHG_QUANTITY":10858,"TYPE":"fc"},"geometry":{"type":"Point","coordinates":[-105.02021,40.5236]}},{"type":"Feature","properties":{"FACILITY_NAME":"BARGATH, INC- HYRUP PROD FACILITY","GHGRP_ID":1002944,"ADDRESS":"","CITY":"PARACHUTE","COUNTY NAME":"Garfield","STATE":"CO","ZIP":81635,"GHG_QUANTITY":16342,"TYPE":"fc"},"geometry":{"type":"Point","coordinates":[-108.06329,39.369139]}},{"type":"Feature","properties":{"FACILITY_NAME":"BARGATH, INC.- PARACHUTE","GHGRP_ID":1002943,"ADDRESS":"","CITY":"PARACHUTE, 3.4 MI NW OF","COUNTY NAME":"Garfield","STATE":"CO","ZIP":81635,"GHG_QUANTITY":147772,"TYPE":"fc"},"geometry":{"type":"Point","coordinates":[-108.111356,39.487297]}},{"type":"Feature","properties":{"FACILITY_NAME":"BROADACRE LANDFILL - FOUNTAIN LANDFILL","GHGRP_ID":1006464,"ADDRESS":"10000 SQUIRREL CREEK RD","CITY":"FOUNTAIN","COUNTY NAME":"EL PASO","STATE":"CO","ZIP":80817,"GHG_QUANTITY":11,"TYPE":"fc"},"geometry":{"type":"Point","coordinates":[-104.628161,38.679516]}},{"type":"Feature","properties":{"FACILITY_NAME":"Bargath LLC - Crawford Trail CS","GHGRP_ID":1002945,"ADDRESS":"","CITY":"Parachute","COUNTY NAME":"Garfield","STATE":"CO","ZIP":81635,"GHG_QUANTITY":28499,"TYPE":"fc"},"geometry":{"type":"Point","coordinates":[-108.184214,39.503457]}},{"type":"Feature","properties":{"FACILITY_NAME":"Big Hole Compressor Station","GHGRP_ID":1011077,"ADDRESS":"37607 County Road 7","CITY":"Craig","COUNTY NAME":"MOFFAT COUNTY","STATE":"CO","ZIP":81625,"GHG_QUANTITY":2827,"TYPE":"fc"},"geometry":{"type":"Point","coordinates":[-107.763621,40.768594]}},{"type":"Feature","properties":{"FACILITY_NAME":"Blue Spruce Energy Center","GHGRP_ID":1000141,"ADDRESS":"1751 N POWHATON RD","CITY":"AURORA","COUNTY NAME":"Adams","STATE":"CO","ZIP":80019,"GHG_QUANTITY":266600,"TYPE":"fc"},"geometry":{"type":"Point","coordinates":[-104.68,39.7436]}},{"type":"Feature","properties":{"FACILITY_NAME":"Bondad Compressor Station","GHGRP_ID":1001759,"ADDRESS":"","CITY":"DURANGO","COUNTY NAME":"La Plata","STATE":"CO","ZIP":81301,"GHG_QUANTITY":20305,"TYPE":"fc"},"geometry":{"type":"Point","coordinates":[-107.8829,37.0881]}},{"type":"Feature","properties":{"FACILITY_NAME":"Brush Power Projects","GHGRP_ID":1001224,"ADDRESS":"1500 S CLAYTON","CITY":"BRUSH","COUNTY NAME":"Morgan","STATE":"CO","ZIP":80723,"GHG_QUANTITY":22696,"TYPE":"fc"},"geometry":{"type":"Point","coordinates":[-103.631,40.2415]}},{"type":"Feature","properties":{"FACILITY_NAME":"CARESTREAM HEALTH INC.","GHGRP_ID":1007717,"ADDRESS":"2000 HOWARD SMITH AVE WEST","CITY":"WINDSOR","COUNTY NAME":"WELD COUNTY","STATE":"CO","ZIP":80550,"GHG_QUANTITY":30999,"TYPE":"fc"},"geometry":{"type":"Point","coordinates":[-104.87399,40.4584]}},{"type":"Feature","properties":{"FACILITY_NAME":"CARGILL MEAT SOLUTIONS CORPORATION","GHGRP_ID":1000357,"ADDRESS":"1505 EAST BURLINGTON AVENUE","CITY":"FORT MORGAN","COUNTY NAME":"MORGAN COUNTY","STATE":"CO","ZIP":80701,"GHG_QUANTITY":26332,"TYPE":"fc"},"geometry":{"type":"Point","coordinates":[-103.7756,40.2469]}},{"type":"Feature","properties":{"FACILITY_NAME":"CEMEX CONSTRUCTION MATERIALS SOUTH LLC","GHGRP_ID":1007877,"ADDRESS":"5134 UTE HIGHWAY","CITY":"LYONS","COUNTY NAME":"BOULDER","STATE":"CO","ZIP":80540,"GHG_QUANTITY":4161,"TYPE":"fc"},"geometry":{"type":"Point","coordinates":[-105.236697,40.202236]}},{"type":"Feature","properties":{"FACILITY_NAME":"CF & I STEEL L P/ DBA ROCKY MOUNTAIN STEEL MILLS","GHGRP_ID":1003902,"ADDRESS":"2100 SOUTH FREEWAY","CITY":"PUEBLO","COUNTY NAME":"PUEBLO","STATE":"CO","ZIP":81004,"GHG_QUANTITY":151967,"TYPE":"fc"},"geometry":{"type":"Point","coordinates":[-104.607257,38.232627]}},{"type":"Feature","properties":{"FACILITY_NAME":"CIG Station 5320 Fort Lupton, CO","GHGRP_ID":1010489,"ADDRESS":"15732 Weld County Road 16","CITY":"Ft. Lupton","COUNTY NAME":"WELD","STATE":"CO","ZIP":80261,"GHG_QUANTITY":24136,"TYPE":"fc"},"geometry":{"type":"Point","coordinates":[-104.758947,40.130922]}},{"type":"Feature","properties":{"FACILITY_NAME":"CIG Station 5560 Kit Carson, CO","GHGRP_ID":1001994,"ADDRESS":"3073 US HIGHWAY 287","CITY":"EADS","COUNTY NAME":"KIOWA","STATE":"CO","ZIP":81036,"GHG_QUANTITY":17565,"TYPE":"fc"},"geometry":{"type":"Point","coordinates":[-102.759485,38.413345]}},{"type":"Feature","properties":{"FACILITY_NAME":"CIG Station 5610 Greasewood, CO","GHGRP_ID":1008151,"ADDRESS":"5200 County Road 3","CITY":"Rifle","COUNTY NAME":"GARFIELD","STATE":"CO","ZIP":81650,"GHG_QUANTITY":27167,"TYPE":"fc"},"geometry":{"type":"Point","coordinates":[-108.105434,39.854648]}},{"type":"Feature","properties":{"FACILITY_NAME":"CIG Station 5850 Cheyenne, CO","GHGRP_ID":1002127,"ADDRESS":"65657 Highway 85","CITY":"CARR","COUNTY NAME":"WELD","STATE":"CO","ZIP":80612,"GHG_QUANTITY":55705,"TYPE":"fc"},"geometry":{"type":"Point","coordinates":[-104.892167,40.908951]}},{"type":"Feature","properties":{"FACILITY_NAME":"CIG Station 5950 Watkins, CO","GHGRP_ID":1002061,"ADDRESS":"24650 East Smith Road","CITY":"AURORA","COUNTY NAME":"ADAMS","STATE":"CO","ZIP":80019,"GHG_QUANTITY":31449,"TYPE":"fc"},"geometry":{"type":"Point","coordinates":[-104.698908,39.745283]}},{"type":"Feature","properties":{"FACILITY_NAME":"COLORADO STATE UNIVERSITY","GHGRP_ID":1004581,"ADDRESS":"6030 Campus Delivery","CITY":"FORT COLLINS","COUNTY NAME":"LARIMER","STATE":"CO","ZIP":80523,"GHG_QUANTITY":42745,"TYPE":"fc"},"geometry":{"type":"Point","coordinates":[-105.09,40.57]}},{"type":"Feature","properties":{"FACILITY_NAME":"Callahan Compressor Station","GHGRP_ID":1002873,"ADDRESS":"","CITY":"PARACHUTE","COUNTY NAME":"Garfield","STATE":"CO","ZIP":81635,"GHG_QUANTITY":26024,"TYPE":"fc"},"geometry":{"type":"Point","coordinates":[-108.08675,39.468423]}},{"type":"Feature","properties":{"FACILITY_NAME":"Central Treating Facility","GHGRP_ID":1004824,"ADDRESS":"","CITY":"Meeker","COUNTY NAME":"Rio Blanco","STATE":"CO","ZIP":81641,"GHG_QUANTITY":38973,"TYPE":"fc"},"geometry":{"type":"Point","coordinates":[-108.2957,39.8338]}},{"type":"Feature","properties":{"FACILITY_NAME":"Cherokee","GHGRP_ID":1007207,"ADDRESS":"6198 FRANKLIN ST","CITY":"DENVER","COUNTY NAME":"Adams","STATE":"CO","ZIP":80216,"GHG_QUANTITY":3058144,"TYPE":"fc"},"geometry":{"type":"Point","coordinates":[-104.9648,39.8078]}},{"type":"Feature","properties":{"FACILITY_NAME":"Clough Compressor Station","GHGRP_ID":1003022,"ADDRESS":"","CITY":"RIFLE","COUNTY NAME":"Garfield","STATE":"CO","ZIP":81650,"GHG_QUANTITY":24413,"TYPE":"fc"},"geometry":{"type":"Point","coordinates":[-107.889912,39.51861]}},{"type":"Feature","properties":{"FACILITY_NAME":"Colorado Energy Nations Company LLC (Golden Facility)","GHGRP_ID":1003568,"ADDRESS":"1003 Vasquez Street","CITY":"GOLDEN","COUNTY NAME":"JEFFERSON","STATE":"CO","ZIP":80401,"GHG_QUANTITY":379090,"TYPE":"fc"},"geometry":{"type":"Point","coordinates":[-105.215,39.760555]}},{"type":"Feature","properties":{"FACILITY_NAME":"Colorado Springs Landfill","GHGRP_ID":1008019,"ADDRESS":"1010 Blaney Road","CITY":"Colorado Springs","COUNTY NAME":"EL PASO","STATE":"CO","ZIP":80929,"GHG_QUANTITY":479,"TYPE":"fc"},"geometry":{"type":"Point","coordinates":[-104.572053,38.847491]}},{"type":"Feature","properties":{"FACILITY_NAME":"Comanche (470)","GHGRP_ID":1001462,"ADDRESS":"2005 LIME RD","CITY":"PUEBLO","COUNTY NAME":"Pueblo","STATE":"CO","ZIP":81006,"GHG_QUANTITY":8424502,"TYPE":"fc"},"geometry":{"type":"Point","coordinates":[-104.5747,38.2081]}},{"type":"Feature","properties":{"FACILITY_NAME":"Compressor Station 601","GHGRP_ID":1002406,"ADDRESS":"37500 County Rd 78","CITY":"Peetz","COUNTY NAME":"LOGAN","STATE":"CO","ZIP":80747,"GHG_QUANTITY":56412,"TYPE":"fc"},"geometry":{"type":"Point","coordinates":[-102.855976,40.994389]}},{"type":"Feature","properties":{"FACILITY_NAME":"Conn Creek Compressor Station","GHGRP_ID":1007414,"ADDRESS":"","CITY":"De Beque","COUNTY NAME":"Garfield","STATE":"CO","ZIP":81630,"GHG_QUANTITY":32910,"TYPE":"fc"},"geometry":{"type":"Point","coordinates":[-108.2479,39.4819]}},{"type":"Feature","properties":{"FACILITY_NAME":"Cottonwood Point Compressor Station","GHGRP_ID":1003011,"ADDRESS":"","CITY":"PARACHUTE","COUNTY NAME":"Garfield","STATE":"CO","ZIP":81635,"GHG_QUANTITY":30408,"TYPE":"fc"},"geometry":{"type":"Point","coordinates":[-107.991952,39.481874]}},{"type":"Feature","properties":{"FACILITY_NAME":"Coyote Gulch Treating Plant","GHGRP_ID":1001946,"ADDRESS":"","CITY":"DURANGO","COUNTY NAME":"La Plata","STATE":"CO","ZIP":81301,"GHG_QUANTITY":41543,"TYPE":"fc"},"geometry":{"type":"Point","coordinates":[-108.0615,37.0141]}},{"type":"Feature","properties":{"FACILITY_NAME":"Craig","GHGRP_ID":1001008,"ADDRESS":"2101 S RANNEY","CITY":"CRAIG","COUNTY NAME":"Moffat","STATE":"CO","ZIP":81626,"GHG_QUANTITY":8213834,"TYPE":"fc"},"geometry":{"type":"Point","coordinates":[-107.5912,40.4627]}},{"type":"Feature","properties":{"FACILITY_NAME":"DEBEQUE GAS PROCESSING FACILITY","GHGRP_ID":1011635,"ADDRESS":"","CITY":"De Beque","COUNTY NAME":"Mesa","STATE":"CO","ZIP":81630,"GHG_QUANTITY":20377,"TYPE":"fc"},"geometry":{"type":"Point","coordinates":[-108.2431,39.3269]}},{"type":"Feature","properties":{"FACILITY_NAME":"DENVER ARAPAHOE DISPOSAL SITE-A WASTE MANAGEMENT COMPANY","GHGRP_ID":1007709,"ADDRESS":"3500 SOUTH GUN CLUB ROAD","CITY":"AURORA","COUNTY NAME":"ARAPAHOE COUNTY","STATE":"CO","ZIP":80018,"GHG_QUANTITY":909,"TYPE":"fc"},"geometry":{"type":"Point","coordinates":[-104.70914,39.64566]}},{"type":"Feature","properties":{"FACILITY_NAME":"DENVER INTERNATIONAL AIRPORT","GHGRP_ID":1004796,"ADDRESS":"8500 PENA BOULEVARD","CITY":"DENVER","COUNTY NAME":"DENVER","STATE":"CO","ZIP":80249,"GHG_QUANTITY":27704,"TYPE":"fc"},"geometry":{"type":"Point","coordinates":[-104.70436,39.83425]}},{"type":"Feature","properties":{"FACILITY_NAME":"ENCANA OIL AND GAS USA - DRAGON TRAIL GAS PLANT - 08-103-00036","GHGRP_ID":1003447,"ADDRESS":"3606 COUNTY ROAD 116","CITY":"RANGELY","COUNTY NAME":"RIO BLANCO","STATE":"CO","ZIP":81648,"GHG_QUANTITY":18773,"TYPE":"fc"},"geometry":{"type":"Point","coordinates":[-108.915996,39.859473]}},{"type":"Feature","properties":{"FACILITY_NAME":"ENTERPRISE COMPRESSOR STATION","GHGRP_ID":1002666,"ADDRESS":"10002 Weld County Road 59","CITY":"LaSalle","COUNTY NAME":"WELD","STATE":"CO","ZIP":80645,"GHG_QUANTITY":47367,"TYPE":"fc"},"geometry":{"type":"Point","coordinates":[-104.4877,40.191]}},{"type":"Feature","properties":{"FACILITY_NAME":"EPNG Station 6210 Bondad","GHGRP_ID":1002116,"ADDRESS":"2227 County Road 318","CITY":"Ignacio","COUNTY NAME":"LA PLATA","STATE":"CO","ZIP":81137,"GHG_QUANTITY":40486,"TYPE":"fc"},"geometry":{"type":"Point","coordinates":[-107.769381,37.096339]}},{"type":"Feature","properties":{"FACILITY_NAME":"Eagle Valley Clean Energy","GHGRP_ID":1011681,"ADDRESS":"10775 HWY 6","CITY":"Gypsum","COUNTY NAME":"EAGLE COUNTY","STATE":"CO","ZIP":81637,"GHG_QUANTITY":28,"TYPE":"fc"},"geometry":{"type":"Point","coordinates":[-106.940343,39.646803]}},{"type":"Feature","properties":{"FACILITY_NAME":"FORT CARSON USARMY","GHGRP_ID":1007910,"ADDRESS":"1626 Evans Street, Bldg 1219","CITY":"Fort Carson","COUNTY NAME":"EL PASO","STATE":"CO","ZIP":80913,"GHG_QUANTITY":55972,"TYPE":"fc"},"geometry":{"type":"Point","coordinates":[-104.79509,38.76408]}},{"type":"Feature","properties":{"FACILITY_NAME":"FRONT RANGE ENERGY","GHGRP_ID":1006942,"ADDRESS":"31375 GREAT WESTERN DRIVE","CITY":"WINDSOR","COUNTY NAME":"WELD","STATE":"CO","ZIP":80550,"GHG_QUANTITY":36283,"TYPE":"fc"},"geometry":{"type":"Point","coordinates":[-104.857553,40.455978]}},{"type":"Feature","properties":{"FACILITY_NAME":"Florida River Gas Processing Facility","GHGRP_ID":1003223,"ADDRESS":"2906 CR 307","CITY":"Durango","COUNTY NAME":"LA PLATA","STATE":"CO","ZIP":81303,"GHG_QUANTITY":61078,"TYPE":"fc"},"geometry":{"type":"Point","coordinates":[-107.77978,37.15639]}},{"type":"Feature","properties":{"FACILITY_NAME":"Fort Lupton Compressor Station","GHGRP_ID":1001977,"ADDRESS":"","CITY":"Brighton","COUNTY NAME":"Weld","STATE":"CO","ZIP":80601,"GHG_QUANTITY":182229,"TYPE":"fc"},"geometry":{"type":"Point","coordinates":[-104.7515,40.1434]}},{"type":"Feature","properties":{"FACILITY_NAME":"Fort St. Vrain","GHGRP_ID":1001029,"ADDRESS":"16805 WELD CR 19 12","CITY":"PLATTEVILLE","COUNTY NAME":"Weld","STATE":"CO","ZIP":80651,"GHG_QUANTITY":1496881,"TYPE":"fc"},"geometry":{"type":"Point","coordinates":[-104.8742,40.2461]}},{"type":"Feature","properties":{"FACILITY_NAME":"Fountain Valley Power Plant","GHGRP_ID":1007383,"ADDRESS":"18693 Boca Raton Heights","CITY":"Fountain","COUNTY NAME":"El Paso","STATE":"CO","ZIP":80817,"GHG_QUANTITY":184636,"TYPE":"fc"},"geometry":{"type":"Point","coordinates":[-104.6875,38.5569]}},{"type":"Feature","properties":{"FACILITY_NAME":"Frank Knutson Station","GHGRP_ID":1000061,"ADDRESS":"13501 POWHATEN ROAD","CITY":"COMMERCE CITY","COUNTY NAME":"Adams","STATE":"CO","ZIP":80022,"GHG_QUANTITY":4849,"TYPE":"fc"},"geometry":{"type":"Point","coordinates":[-104.6817,39.9414]}},{"type":"Feature","properties":{"FACILITY_NAME":"Fredrick Compressor Station","GHGRP_ID":1002206,"ADDRESS":"","CITY":"Brighton","COUNTY NAME":"Weld","STATE":"CO","ZIP":80601,"GHG_QUANTITY":52200,"TYPE":"fc"},"geometry":{"type":"Point","coordinates":[-104.8852,40.0573]}},{"type":"Feature","properties":{"FACILITY_NAME":"Front Range Power Plant","GHGRP_ID":1001400,"ADDRESS":"6615 GENERATION DRIVE","CITY":"FOUNTAIN","COUNTY NAME":"El Paso","STATE":"CO","ZIP":80817,"GHG_QUANTITY":758913,"TYPE":"fc"},"geometry":{"type":"Point","coordinates":[-104.7069,38.6281]}},{"type":"Feature","properties":{"FACILITY_NAME":"GCC RIO GRANDE INC","GHGRP_ID":1003067,"ADDRESS":"3372 LIME ROAD","CITY":"PUEBLO","COUNTY NAME":"PUEBLO","STATE":"CO","ZIP":81004,"GHG_QUANTITY":965,"TYPE":"fc"},"geometry":{"type":"Point","coordinates":[-104.62595,38.1507]}},{"type":"Feature","properties":{"FACILITY_NAME":"GREELEY GAS PLANT","GHGRP_ID":1006310,"ADDRESS":"3009 WEST 49TH STREET","CITY":"GREELEY","COUNTY NAME":"WELD COUNTY","STATE":"CO","ZIP":80634,"GHG_QUANTITY":32251,"TYPE":"fc"},"geometry":{"type":"Point","coordinates":[-104.76003,40.38812]}},{"type":"Feature","properties":{"FACILITY_NAME":"GRG - EAST MAMM CREEK CS","GHGRP_ID":1003630,"ADDRESS":"","CITY":"RIFLE, 2.0 MI SE OF","COUNTY NAME":"Garfield","STATE":"CO","ZIP":81650,"GHG_QUANTITY":28886,"TYPE":"fc"},"geometry":{"type":"Point","coordinates":[-107.7232517,39.4894897]}},{"type":"Feature","properties":{"FACILITY_NAME":"GRG - HIGH MESA CS","GHGRP_ID":1006331,"ADDRESS":"","CITY":"PARACHUTE","COUNTY NAME":"Garfield","STATE":"CO","ZIP":81635,"GHG_QUANTITY":26475,"TYPE":"fc"},"geometry":{"type":"Point","coordinates":[-108.0590714,39.395581]}},{"type":"Feature","properties":{"FACILITY_NAME":"GRG - HUNTER MESA CS","GHGRP_ID":1006001,"ADDRESS":"","CITY":"RIFLE, 3.3 MI SE OF","COUNTY NAME":"Garfield","STATE":"CO","ZIP":81650,"GHG_QUANTITY":33019,"TYPE":"fc"},"geometry":{"type":"Point","coordinates":[-107.7153515,39.4686107]}},{"type":"Feature","properties":{"FACILITY_NAME":"GRG - MAMM CREEK CS","GHGRP_ID":1006003,"ADDRESS":"","CITY":"RIFLE","COUNTY NAME":"Garfield","STATE":"CO","ZIP":81650,"GHG_QUANTITY":15199,"TYPE":"fc"},"geometry":{"type":"Point","coordinates":[-107.7232517,39.4894897]}},{"type":"Feature","properties":{"FACILITY_NAME":"GRG - PUMBA CS","GHGRP_ID":1006004,"ADDRESS":"","CITY":"RIFLE, 3.6 MI S OF","COUNTY NAME":"Garfield","STATE":"CO","ZIP":81650,"GHG_QUANTITY":30802,"TYPE":"fc"},"geometry":{"type":"Point","coordinates":[-107.7564733,39.4649163]}},{"type":"Feature","properties":{"FACILITY_NAME":"HOLMES MESA CMP STN","GHGRP_ID":1003252,"ADDRESS":"","CITY":"RULISON","COUNTY NAME":"Garfield","STATE":"CO","ZIP":81650,"GHG_QUANTITY":44975,"TYPE":"fc"},"geometry":{"type":"Point","coordinates":[-107.926867,39.467984]}},{"type":"Feature","properties":{"FACILITY_NAME":"Hambert Compressor Station","GHGRP_ID":1011533,"ADDRESS":"18450 Weld County Road 35","CITY":"Gilcrest","COUNTY NAME":"WELD","STATE":"CO","ZIP":80623,"GHG_QUANTITY":31186,"TYPE":"fc"},"geometry":{"type":"Point","coordinates":[-104.724297,40.2696]}},{"type":"Feature","properties":{"FACILITY_NAME":"Hayden","GHGRP_ID":1001466,"ADDRESS":"12795 E YUTE","CITY":"HAYDEN","COUNTY NAME":"Routt","STATE":"CO","ZIP":81639,"GHG_QUANTITY":3089050,"TYPE":"fc"},"geometry":{"type":"Point","coordinates":[-107.185,40.4856]}},{"type":"Feature","properties":{"FACILITY_NAME":"Hayes Gulch Compressor Station","GHGRP_ID":1003014,"ADDRESS":"","CITY":"PARACHUTE","COUNTY NAME":"Garfield","STATE":"CO","ZIP":81635,"GHG_QUANTITY":25845,"TYPE":"fc"},"geometry":{"type":"Point","coordinates":[-108.051398,39.466732]}},{"type":"Feature","properties":{"FACILITY_NAME":"Heath Compressor Station","GHGRP_ID":1002936,"ADDRESS":"","CITY":"RIFLE","COUNTY NAME":"Garfield","STATE":"CO","ZIP":81650,"GHG_QUANTITY":37520,"TYPE":"fc"},"geometry":{"type":"Point","coordinates":[-107.884743,39.497639]}},{"type":"Feature","properties":{"FACILITY_NAME":"Holcim (US) Inc. - Portland Plant","GHGRP_ID":1003008,"ADDRESS":"3500 Highway 120","CITY":"Florence","COUNTY NAME":"FREMONT","STATE":"CO","ZIP":81226,"GHG_QUANTITY":931,"TYPE":"fc"},"geometry":{"type":"Point","coordinates":[-105.039244,38.386936]}},{"type":"Feature","properties":{"FACILITY_NAME":"Hudson Compressor Station","GHGRP_ID":1002062,"ADDRESS":"","CITY":"Brighton","COUNTY NAME":"Weld","STATE":"CO","ZIP":80601,"GHG_QUANTITY":72096,"TYPE":"fc"},"geometry":{"type":"Point","coordinates":[-104.7196,40.2235]}},{"type":"Feature","properties":{"FACILITY_NAME":"IGNACIO GAS PLANT","GHGRP_ID":1002532,"ADDRESS":"3746 CR 307","CITY":"DURANGO","COUNTY NAME":"LA PLATA","STATE":"CO","ZIP":81301,"GHG_QUANTITY":245418,"TYPE":"fc"},"geometry":{"type":"Point","coordinates":[-107.784839,37.144682]}},{"type":"Feature","properties":{"FACILITY_NAME":"J.M. Shafer Generating Station","GHGRP_ID":1000559,"ADDRESS":"6811 Weld County Road #31","CITY":"FORT LUPTON","COUNTY NAME":"Weld","STATE":"CO","ZIP":80621,"GHG_QUANTITY":339265,"TYPE":"fc"},"geometry":{"type":"Point","coordinates":[-104.7745,40.0979]}},{"type":"Feature","properties":{"FACILITY_NAME":"JBS Swift Beef Company - Greeley Plant","GHGRP_ID":1004022,"ADDRESS":"800 North 8th Avenue","CITY":"Greeley","COUNTY NAME":"WELD COUNTY","STATE":"CO","ZIP":80632,"GHG_QUANTITY":55182,"TYPE":"fc"},"geometry":{"type":"Point","coordinates":[-104.69233,40.44278]}},{"type":"Feature","properties":{"FACILITY_NAME":"Jackrabbit Compressor Station","GHGRP_ID":1005036,"ADDRESS":"13064 Garden Gulch Rd.","CITY":"Parachute","COUNTY NAME":"GARFIELD","STATE":"CO","ZIP":81635,"GHG_QUANTITY":22232,"TYPE":"fc"},"geometry":{"type":"Point","coordinates":[-108.095435,39.485628]}},{"type":"Feature","properties":{"FACILITY_NAME":"Koch Meeker Gas Plant","GHGRP_ID":1010030,"ADDRESS":"929 Penny Dr","CITY":"Meeker","COUNTY NAME":"RIO BLANCO COUNTY","STATE":"CO","ZIP":81641,"GHG_QUANTITY":15908,"TYPE":"fc"},"geometry":{"type":"Point","coordinates":[-107.763621,39.977742]}},{"type":"Feature","properties":{"FACILITY_NAME":"LA PLATA \\A\\ CMP STN","GHGRP_ID":1005882,"ADDRESS":"3775 COUNTY ROAD 307","CITY":"DURANGO","COUNTY NAME":"LA PLATA","STATE":"CO","ZIP":81301,"GHG_QUANTITY":17943,"TYPE":"fc"},"geometry":{"type":"Point","coordinates":[-107.786771,37.143579]}},{"type":"Feature","properties":{"FACILITY_NAME":"LADDER CREEK HELIUM PLANT","GHGRP_ID":1002352,"ADDRESS":"41707 COUNTY ROAD P","CITY":"CHEYENNE WELLS","COUNTY NAME":"CHEYENNE","STATE":"CO","ZIP":80810,"GHG_QUANTITY":32979,"TYPE":"fc"},"geometry":{"type":"Point","coordinates":[-102.413156,39.014999]}},{"type":"Feature","properties":{"FACILITY_NAME":"LARIMER COUNTY LANDFILL","GHGRP_ID":1005928,"ADDRESS":"5887 SOUTH TAFT HILL ROAD","CITY":"FORT COLLINS","COUNTY NAME":"LARIMER COUNTY","STATE":"CO","ZIP":80526,"GHG_QUANTITY":43,"TYPE":"fc"},"geometry":{"type":"Point","coordinates":[-105.12032,40.49803]}},{"type":"Feature","properties":{"FACILITY_NAME":"LINDE LLC CORTEZ PLANT","GHGRP_ID":1007715,"ADDRESS":"14207  RD G","CITY":"CORTEZ","COUNTY NAME":"MONTEZUMA","STATE":"CO","ZIP":81321,"GHG_QUANTITY":916,"TYPE":"fc"},"geometry":{"type":"Point","coordinates":[-109.017397,37.327457]}},{"type":"Feature","properties":{"FACILITY_NAME":"LUCERNE GAS PLANT","GHGRP_ID":1002355,"ADDRESS":"31495 COUNTY ROAD 43","CITY":"GREELEY","COUNTY NAME":"WELD","STATE":"CO","ZIP":80631,"GHG_QUANTITY":74450,"TYPE":"fc"},"geometry":{"type":"Point","coordinates":[-104.664686,40.457201]}},{"type":"Feature","properties":{"FACILITY_NAME":"Leprino Foods, Greeley","GHGRP_ID":1006479,"ADDRESS":"1302 1 st Avenue","CITY":"Greeley","COUNTY NAME":"WELD","STATE":"CO","ZIP":80631,"GHG_QUANTITY":38254,"TYPE":"fc"},"geometry":{"type":"Point","coordinates":[-104.675853,40.416952]}},{"type":"Feature","properties":{"FACILITY_NAME":"Limon Generating Station","GHGRP_ID":1000060,"ADDRESS":"48303 STATE ROAD 71","CITY":"LIMON","COUNTY NAME":"Lincoln","STATE":"CO","ZIP":80828,"GHG_QUANTITY":20244,"TYPE":"fc"},"geometry":{"type":"Point","coordinates":[-103.7005,39.2038]}},{"type":"Feature","properties":{"FACILITY_NAME":"MARLA COMPRESSOR STATION","GHGRP_ID":1006309,"ADDRESS":"","CITY":"KERSEY","COUNTY NAME":"Weld","STATE":"CO","ZIP":80644,"GHG_QUANTITY":29247,"TYPE":"fc"},"geometry":{"type":"Point","coordinates":[-104.5475,40.2767]}},{"type":"Feature","properties":{"FACILITY_NAME":"MEWBOURN GAS PLANT","GHGRP_ID":1006131,"ADDRESS":"18455 WELD COUNTY RD 35","CITY":"GILCREST","COUNTY NAME":"WELD","STATE":"CO","ZIP":80623,"GHG_QUANTITY":158519,"TYPE":"fc"},"geometry":{"type":"Point","coordinates":[-104.734944,40.266583]}},{"type":"Feature","properties":{"FACILITY_NAME":"MVS Compressor Station","GHGRP_ID":1001716,"ADDRESS":"69861 Highway 330E","CITY":"Collbran","COUNTY NAME":"MESA","STATE":"CO","ZIP":81624,"GHG_QUANTITY":15501,"TYPE":"fc"},"geometry":{"type":"Point","coordinates":[-107.74001,39.277176]}},{"type":"Feature","properties":{"FACILITY_NAME":"Manchief Generating Station","GHGRP_ID":1001327,"ADDRESS":"14936 COUNTY ROAD 24","CITY":"BRUSH","COUNTY NAME":"Morgan","STATE":"CO","ZIP":80723,"GHG_QUANTITY":108886,"TYPE":"fc"},"geometry":{"type":"Point","coordinates":[-103.679,40.2201]}},{"type":"Feature","properties":{"FACILITY_NAME":"Martin Drake","GHGRP_ID":1001465,"ADDRESS":"700 S CONEJOS ST","CITY":"COLORADO SPRINGS","COUNTY NAME":"El Paso","STATE":"CO","ZIP":80903,"GHG_QUANTITY":1650120,"TYPE":"fc"},"geometry":{"type":"Point","coordinates":[-104.8331,38.8244]}},{"type":"Feature","properties":{"FACILITY_NAME":"Mead Compressor Station","GHGRP_ID":1011898,"ADDRESS":"","CITY":"Platteville","COUNTY NAME":"Weld","STATE":"CO","ZIP":80651,"GHG_QUANTITY":25693,"TYPE":"fc"},"geometry":{"type":"Point","coordinates":[-104.871885,40.18097]}},{"type":"Feature","properties":{"FACILITY_NAME":"Meeker Compressor Station","GHGRP_ID":1002912,"ADDRESS":"26100 CR 5","CITY":"Rifle","COUNTY NAME":"GARFIELD","STATE":"CO","ZIP":81650,"GHG_QUANTITY":23957,"TYPE":"fc"},"geometry":{"type":"Point","coordinates":[-108.290437,39.891773]}},{"type":"Feature","properties":{"FACILITY_NAME":"Meeker Gas Plant","GHGRP_ID":1004822,"ADDRESS":"27991 County Rd 5","CITY":"Rifle","COUNTY NAME":"GARFIELD","STATE":"CO","ZIP":81650,"GHG_QUANTITY":105809,"TYPE":"fc"},"geometry":{"type":"Point","coordinates":[-108.294316,39.910727]}},{"type":"Feature","properties":{"FACILITY_NAME":"Midway Landfill","GHGRP_ID":1007863,"ADDRESS":"8925 Rancho Colorado Boulevard","CITY":"Fountain","COUNTY NAME":"PUEBLO","STATE":"CO","ZIP":80817,"GHG_QUANTITY":240,"TYPE":"fc"},"geometry":{"type":"Point","coordinates":[-104.661847,38.547492]}},{"type":"Feature","properties":{"FACILITY_NAME":"NORTH WELD SANITARY LANDFILL","GHGRP_ID":1007880,"ADDRESS":"40000 WELD COUNTY RD 25","CITY":"AULT","COUNTY NAME":"WELD","STATE":"CO","ZIP":80610,"GHG_QUANTITY":3254,"TYPE":"fc"},"geometry":{"type":"Point","coordinates":[-104.8318,40.58156]}},{"type":"Feature","properties":{"FACILITY_NAME":"Natural Soda","GHGRP_ID":1010576,"ADDRESS":"3200 CR31","CITY":"Rifle","COUNTY NAME":"RIO BLANCO COUNTY","STATE":"CO","ZIP":81650,"GHG_QUANTITY":50798,"TYPE":"fc"},"geometry":{"type":"Point","coordinates":[-108.332665,39.886477]}},{"type":"Feature","properties":{"FACILITY_NAME":"Nucla","GHGRP_ID":1007676,"ADDRESS":"30739 DD 30 ROAD","CITY":"NUCLA","COUNTY NAME":"Montrose","STATE":"CO","ZIP":81424,"GHG_QUANTITY":543808,"TYPE":"fc"},"geometry":{"type":"Point","coordinates":[-108.5083,38.2387]}},{"type":"Feature","properties":{"FACILITY_NAME":"O'Connor Gas Plant","GHGRP_ID":1010119,"ADDRESS":"","CITY":"LaSalle","COUNTY NAME":"Weld","STATE":"CO","ZIP":80645,"GHG_QUANTITY":42726,"TYPE":"fc"},"geometry":{"type":"Point","coordinates":[-104.587772,40.352206]}},{"type":"Feature","properties":{"FACILITY_NAME":"OWENS-BROCKWAY GLASS CONTAINER INC PLANT 28","GHGRP_ID":1001975,"ADDRESS":"11133 Eastman Park Drive","CITY":"Windsor","COUNTY NAME":"WELD COUNTY","STATE":"CO","ZIP":80550,"GHG_QUANTITY":60748,"TYPE":"fc"},"geometry":{"type":"Point","coordinates":[-104.849165,40.461452]}},{"type":"Feature","properties":{"FACILITY_NAME":"Outlaw Compressor Station","GHGRP_ID":1001947,"ADDRESS":"","CITY":"DURANGO","COUNTY NAME":"La Plata","STATE":"CO","ZIP":81303,"GHG_QUANTITY":8231,"TYPE":"fc"},"geometry":{"type":"Point","coordinates":[-107.7786,37.1745]}},{"type":"Feature","properties":{"FACILITY_NAME":"Oxbow Mining, LLC","GHGRP_ID":1009623,"ADDRESS":"3737 Highway 133","CITY":"Somerset","COUNTY NAME":"GUNNISON COUNTY","STATE":"CO","ZIP":81434,"GHG_QUANTITY":14989,"TYPE":"fc"},"geometry":{"type":"Point","coordinates":[-107.470007,38.926289]}},{"type":"Feature","properties":{"FACILITY_NAME":"PIONEER NAT RES - BURRO CANYON CS","GHGRP_ID":1002533,"ADDRESS":"","CITY":"COKEDALE 2.3 MI. W OF","COUNTY NAME":"Las Animas","STATE":"CO","ZIP":81082,"GHG_QUANTITY":31704,"TYPE":"fc"},"geometry":{"type":"Point","coordinates":[-104.66506,37.15515]}},{"type":"Feature","properties":{"FACILITY_NAME":"PIONEER NAT RES - TAMBURELLI CS","GHGRP_ID":1002535,"ADDRESS":"","CITY":"COKEDALE, 7.7 MI N OF","COUNTY NAME":"Las Animas","STATE":"CO","ZIP":81082,"GHG_QUANTITY":36914,"TYPE":"fc"},"geometry":{"type":"Point","coordinates":[-104.657,37.2532]}},{"type":"Feature","properties":{"FACILITY_NAME":"PIONEER NAT RESOURCES - COTTONTAIL PASS","GHGRP_ID":1006559,"ADDRESS":"","CITY":"COKEDALE","COUNTY NAME":"Las Animas","STATE":"CO","ZIP":81082,"GHG_QUANTITY":43277,"TYPE":"fc"},"geometry":{"type":"Point","coordinates":[-104.7824,37.21847]}},{"type":"Feature","properties":{"FACILITY_NAME":"PIONEER NAT RESOURCES - WET CANYON CS","GHGRP_ID":1002534,"ADDRESS":"","CITY":"COKEDALE","COUNTY NAME":"Las Animas","STATE":"CO","ZIP":81082,"GHG_QUANTITY":40769,"TYPE":"fc"},"geometry":{"type":"Point","coordinates":[-104.85782,37.1519]}},{"type":"Feature","properties":{"FACILITY_NAME":"PLAINS END Generating Station","GHGRP_ID":1003138,"ADDRESS":"8950 HIGHWAY 93","CITY":"Arvada","COUNTY NAME":"JEFFERSON","STATE":"CO","ZIP":80007,"GHG_QUANTITY":23660,"TYPE":"fc"},"geometry":{"type":"Point","coordinates":[-105.240616,39.872093]}},{"type":"Feature","properties":{"FACILITY_NAME":"PLATTEVILLE GAS PLANT","GHGRP_ID":1005678,"ADDRESS":"13675 WELD COUNTY ROAD 34","CITY":"PLATTEVILLE","COUNTY NAME":"WELD","STATE":"CO","ZIP":80651,"GHG_QUANTITY":48486,"TYPE":"fc"},"geometry":{"type":"Point","coordinates":[-104.798221,40.232045]}},{"type":"Feature","properties":{"FACILITY_NAME":"PUBLIC SERVICE CO DENVER STEAM PLT","GHGRP_ID":1002817,"ADDRESS":"1875 DELGANY STREET (19TH AND DELGANY)","CITY":"DENVER","COUNTY NAME":"DENVER","STATE":"CO","ZIP":80202,"GHG_QUANTITY":61069,"TYPE":"fc"},"geometry":{"type":"Point","coordinates":[-104.99924,39.75583]}},{"type":"Feature","properties":{"FACILITY_NAME":"Pawnee","GHGRP_ID":1001048,"ADDRESS":"14940 County Road 24","CITY":"Brush","COUNTY NAME":"Morgan","STATE":"CO","ZIP":80723,"GHG_QUANTITY":4119217,"TYPE":"fc"},"geometry":{"type":"Point","coordinates":[-103.6803,40.2217]}},{"type":"Feature","properties":{"FACILITY_NAME":"Plateville Compressor Station","GHGRP_ID":1006880,"ADDRESS":"","CITY":"Brighton","COUNTY NAME":"Weld","STATE":"CO","ZIP":80601,"GHG_QUANTITY":36807,"TYPE":"fc"},"geometry":{"type":"Point","coordinates":[-104.7196,40.2235]}},{"type":"Feature","properties":{"FACILITY_NAME":"Pueblo Airport Generating Station","GHGRP_ID":1000558,"ADDRESS":"400 N 27th Lane","CITY":"Pueblo","COUNTY NAME":"Pueblo","STATE":"CO","ZIP":81001,"GHG_QUANTITY":541705,"TYPE":"fc"},"geometry":{"type":"Point","coordinates":[-104.533,38.322]}},{"type":"Feature","properties":{"FACILITY_NAME":"Pump Canyon Compreesor Station","GHGRP_ID":1011983,"ADDRESS":"","CITY":"Durango","COUNTY NAME":"La Plata","STATE":"CO","ZIP":81301,"GHG_QUANTITY":27505,"TYPE":"fc"},"geometry":{"type":"Point","coordinates":[-107.679114,37.045517]}},{"type":"Feature","properties":{"FACILITY_NAME":"RIFLE CMP STN","GHGRP_ID":1006929,"ADDRESS":"","CITY":"RIFLE","COUNTY NAME":"Garfield","STATE":"CO","ZIP":81650,"GHG_QUANTITY":29886,"TYPE":"fc"},"geometry":{"type":"Point","coordinates":[-107.829371,39.531599]}},{"type":"Feature","properties":{"FACILITY_NAME":"ROCKY MOUNTAIN BOTTLE COMPANY","GHGRP_ID":1003465,"ADDRESS":"10619 W 50TH AVE","CITY":"WHEAT RIDGE","COUNTY NAME":"JEFFERSON COUNTY","STATE":"CO","ZIP":80033,"GHG_QUANTITY":57199,"TYPE":"fc"},"geometry":{"type":"Point","coordinates":[-105.11498,39.78741]}},{"type":"Feature","properties":{"FACILITY_NAME":"ROGGEN GAS PLANT","GHGRP_ID":1002031,"ADDRESS":"35409 WELD COUNTY ROAD 18","CITY":"ROGGEN","COUNTY NAME":"WELD","STATE":"CO","ZIP":80652,"GHG_QUANTITY":41303,"TYPE":"fc"},"geometry":{"type":"Point","coordinates":[-104.387444,40.117556]}},{"type":"Feature","properties":{"FACILITY_NAME":"Rabbit Brush Compressor Station","GHGRP_ID":1002946,"ADDRESS":"","CITY":"Parachute","COUNTY NAME":"Garfield","STATE":"CO","ZIP":81635,"GHG_QUANTITY":24300,"TYPE":"fc"},"geometry":{"type":"Point","coordinates":[-108.021664,39.478517]}},{"type":"Feature","properties":{"FACILITY_NAME":"Rangely Gas Plant","GHGRP_ID":1009244,"ADDRESS":"100 Chevron Road","CITY":"Rangely","COUNTY NAME":"","STATE":"CO","ZIP":81648,"GHG_QUANTITY":10826,"TYPE":"fc"},"geometry":{"type":"Point","coordinates":[-108.8670246,40.1064831]}},{"type":"Feature","properties":{"FACILITY_NAME":"Rawhide Energy Station","GHGRP_ID":1001062,"ADDRESS":"2700 East County Road 82","CITY":"Wellington","COUNTY NAME":"Larimer","STATE":"CO","ZIP":80549,"GHG_QUANTITY":1881687,"TYPE":"fc"},"geometry":{"type":"Point","coordinates":[-105.0206,40.8611]}},{"type":"Feature","properties":{"FACILITY_NAME":"Ray D Nixon","GHGRP_ID":1001195,"ADDRESS":"6598 RAY NIXON RD","CITY":"FOUNTAIN","COUNTY NAME":"El Paso","STATE":"CO","ZIP":80817,"GHG_QUANTITY":1555825,"TYPE":"fc"},"geometry":{"type":"Point","coordinates":[-104.7056,38.6306]}},{"type":"Feature","properties":{"FACILITY_NAME":"Rocky Mountain Energy Center","GHGRP_ID":1000271,"ADDRESS":"6211 WELD COUNTY RD 51","CITY":"KEENESBURG","COUNTY NAME":"Weld","STATE":"CO","ZIP":80643,"GHG_QUANTITY":827194,"TYPE":"fc"},"geometry":{"type":"Point","coordinates":[-104.5947,40.0911]}},{"type":"Feature","properties":{"FACILITY_NAME":"Rocky Turbine Compressor Station","GHGRP_ID":1011877,"ADDRESS":"","CITY":"Kersey","COUNTY NAME":"Weld","STATE":"CO","ZIP":80624,"GHG_QUANTITY":26274,"TYPE":"fc"},"geometry":{"type":"Point","coordinates":[-104.4039,40.4639]}},{"type":"Feature","properties":{"FACILITY_NAME":"Ryan Gulch Compressor Station","GHGRP_ID":1002941,"ADDRESS":"","CITY":"MEEKER, 23.3 MI W OF","COUNTY NAME":"Rio Blanco","STATE":"CO","ZIP":81641,"GHG_QUANTITY":33802,"TYPE":"fc"},"geometry":{"type":"Point","coordinates":[-108.3347,39.8981]}},{"type":"Feature","properties":{"FACILITY_NAME":"SAMSON RESOURCES SPRING CREEK CS","GHGRP_ID":1001067,"ADDRESS":"","CITY":"IGNACIO","COUNTY NAME":"La Plata","STATE":"CO","ZIP":81137,"GHG_QUANTITY":35474,"TYPE":"fc"},"geometry":{"type":"Point","coordinates":[-107.576296,37.092635]}},{"type":"Feature","properties":{"FACILITY_NAME":"SOUTH IGNACIO CDP","GHGRP_ID":1006519,"ADDRESS":"","CITY":"IGNACIO","COUNTY NAME":"La Plata","STATE":"CO","ZIP":81137,"GHG_QUANTITY":26657,"TYPE":"fc"},"geometry":{"type":"Point","coordinates":[-107.625701,37.054116]}},{"type":"Feature","properties":{"FACILITY_NAME":"SPINDLE GAS PROCESSING PLANT","GHGRP_ID":1002415,"ADDRESS":"9101 WELD COUNTY RD 14","CITY":"FT LUPTON","COUNTY NAME":"WELD","STATE":"CO","ZIP":80621,"GHG_QUANTITY":42617,"TYPE":"fc"},"geometry":{"type":"Point","coordinates":[-104.884194,40.088944]}},{"type":"Feature","properties":{"FACILITY_NAME":"STERLING ETHANOL, LLC","GHGRP_ID":1006055,"ADDRESS":"450 ANGUS AVENUE","CITY":"STERLING","COUNTY NAME":"LOGAN","STATE":"CO","ZIP":80751,"GHG_QUANTITY":53325,"TYPE":"fc"},"geometry":{"type":"Point","coordinates":[-103.190556,40.6375]}},{"type":"Feature","properties":{"FACILITY_NAME":"SUMMIT COUNTY LANDFILL","GHGRP_ID":1005695,"ADDRESS":"639 LANDFILL RD","CITY":"DILLON AREA","COUNTY NAME":"SUMMIT","STATE":"CO","ZIP":80435,"GHG_QUANTITY":20,"TYPE":"fc"},"geometry":{"type":"Point","coordinates":[-105.997922,39.608712]}},{"type":"Feature","properties":{"FACILITY_NAME":"SUNCOR ENERGY (USA) COMMERCE CITY REFINERY","GHGRP_ID":1007923,"ADDRESS":"5801 BRIGHTON BLVD","CITY":"COMMERCE CITY","COUNTY NAME":"ADAMS","STATE":"CO","ZIP":80022,"GHG_QUANTITY":558340,"TYPE":"fc"},"geometry":{"type":"Point","coordinates":[-104.944444,39.805556]}},{"type":"Feature","properties":{"FACILITY_NAME":"Sambrito Compressor Station","GHGRP_ID":1001763,"ADDRESS":"","CITY":"Durango","COUNTY NAME":"La Plata","STATE":"CO","ZIP":81301,"GHG_QUANTITY":42844,"TYPE":"fc"},"geometry":{"type":"Point","coordinates":[-107.4935,37.0445]}},{"type":"Feature","properties":{"FACILITY_NAME":"Spindle Hill Energy Center","GHGRP_ID":1000486,"ADDRESS":"6335 WELD COUNTY RD 19","CITY":"Fort Lupton","COUNTY NAME":"Weld","STATE":"CO","ZIP":80621,"GHG_QUANTITY":109020,"TYPE":"fc"},"geometry":{"type":"Point","coordinates":[-104.8819,40.0914]}},{"type":"Feature","properties":{"FACILITY_NAME":"St. Vrain Compressor Station","GHGRP_ID":1011904,"ADDRESS":"","CITY":"Platteville","COUNTY NAME":"Weld","STATE":"CO","ZIP":80651,"GHG_QUANTITY":27731,"TYPE":"fc"},"geometry":{"type":"Point","coordinates":[-104.8832681,40.23199641]}},{"type":"Feature","properties":{"FACILITY_NAME":"Sterling Energy Investments LLC Centennial Gas Plant","GHGRP_ID":1011986,"ADDRESS":"47285 County Road 100","CITY":"Briggsdale","COUNTY NAME":"","STATE":"CO","ZIP":80611,"GHG_QUANTITY":25190,"TYPE":"fc"},"geometry":{"type":"Point","coordinates":[-104.285426,40.711642]}},{"type":"Feature","properties":{"FACILITY_NAME":"Story Gulch Compressor Station","GHGRP_ID":1010414,"ADDRESS":"370 17th Street Suite 1700","CITY":"Denver","COUNTY NAME":"DENVER COUNTY","STATE":"CO","ZIP":80202,"GHG_QUANTITY":65389,"TYPE":"fc"},"geometry":{"type":"Point","coordinates":[-104.98796,39.74346]}},{"type":"Feature","properties":{"FACILITY_NAME":"Twentymile Mine","GHGRP_ID":1001682,"ADDRESS":"29515 Route County Road #27","CITY":"Oak Creek","COUNTY NAME":"ROUTT COUNTY","STATE":"CO","ZIP":80467,"GHG_QUANTITY":3428,"TYPE":"fc"},"geometry":{"type":"Point","coordinates":[-107.081476,40.334417]}},{"type":"Feature","properties":{"FACILITY_NAME":"Twin Landfill Corporation","GHGRP_ID":1006834,"ADDRESS":"20650 County Road 205","CITY":"Milner","COUNTY NAME":"ROUTT COUNTY","STATE":"CO","ZIP":80487,"GHG_QUANTITY":11,"TYPE":"fc"},"geometry":{"type":"Point","coordinates":[-107.04,40.474444]}},{"type":"Feature","properties":{"FACILITY_NAME":"US Air Force Academy","GHGRP_ID":1005492,"ADDRESS":"8120 Edgerton Drive","CITY":"USAFA","COUNTY NAME":"EL PASO","STATE":"CO","ZIP":80840,"GHG_QUANTITY":29965,"TYPE":"fc"},"geometry":{"type":"Point","coordinates":[-104.860572,38.990611]}},{"type":"Feature","properties":{"FACILITY_NAME":"University of Colorado Boulder - Utility Services","GHGRP_ID":1002459,"ADDRESS":"","CITY":"Boulder","COUNTY NAME":"Boulder","STATE":"CO","ZIP":80309,"GHG_QUANTITY":31528,"TYPE":"fc"},"geometry":{"type":"Point","coordinates":[-105.2693,40.0076]}},{"type":"Feature","properties":{"FACILITY_NAME":"Valmont","GHGRP_ID":1001463,"ADDRESS":"1800 N 63RD ST","CITY":"BOULDER","COUNTY NAME":"Boulder","STATE":"CO","ZIP":80302,"GHG_QUANTITY":1110684,"TYPE":"fc"},"geometry":{"type":"Point","coordinates":[-105.202,40.0195]}},{"type":"Feature","properties":{"FACILITY_NAME":"Vanguard - BAILEY COMPRESSOR STATION","GHGRP_ID":1003047,"ADDRESS":"","CITY":"Silt","COUNTY NAME":"Garfield","STATE":"CO","ZIP":81652,"GHG_QUANTITY":52460,"TYPE":"fc"},"geometry":{"type":"Point","coordinates":[-107.6464,39.5075]}},{"type":"Feature","properties":{"FACILITY_NAME":"Vanguard - MAMM CREEK COMPRESSOR STATION","GHGRP_ID":1003230,"ADDRESS":"","CITY":"Silt","COUNTY NAME":"Garfield","STATE":"CO","ZIP":81652,"GHG_QUANTITY":7758,"TYPE":"fc"},"geometry":{"type":"Point","coordinates":[-107.7089,39.4917]}},{"type":"Feature","properties":{"FACILITY_NAME":"Vollmar Compressor Station","GHGRP_ID":1011910,"ADDRESS":"","CITY":"Fort Lupton","COUNTY NAME":"Weld","STATE":"CO","ZIP":80621,"GHG_QUANTITY":33729,"TYPE":"fc"},"geometry":{"type":"Point","coordinates":[-104.85966,40.14429]}},{"type":"Feature","properties":{"FACILITY_NAME":"WESTERN AGGREGATES INCORPORATED","GHGRP_ID":1004379,"ADDRESS":"11728 HIGHWAY 93","CITY":"BOULDER","COUNTY NAME":"JEFFERSON COUNTY","STATE":"CO","ZIP":80303,"GHG_QUANTITY":20286,"TYPE":"fc"},"geometry":{"type":"Point","coordinates":[-105.2386,39.90969]}},{"type":"Feature","properties":{"FACILITY_NAME":"WESTERN SUGAR COOP","GHGRP_ID":1001823,"ADDRESS":"18317 HIGHWAY 144","CITY":"FORT MORGAN","COUNTY NAME":"MORGAN","STATE":"CO","ZIP":80701,"GHG_QUANTITY":150687,"TYPE":"fc"},"geometry":{"type":"Point","coordinates":[-103.80612,40.26269]}},{"type":"Feature","properties":{"FACILITY_NAME":"WIC Station 7938 Snake River, CO","GHGRP_ID":1008148,"ADDRESS":"18640 County Road 4","CITY":"Craig","COUNTY NAME":"MOFFAT COUNTY","STATE":"CO","ZIP":81625,"GHG_QUANTITY":28615,"TYPE":"fc"},"geometry":{"type":"Point","coordinates":[-107.71353,40.97969]}},{"type":"Feature","properties":{"FACILITY_NAME":"WILLOW CREEK GAS PLANT","GHGRP_ID":1002319,"ADDRESS":"20219 County Road 5","CITY":"Rifle","COUNTY NAME":"RIO BLANCO","STATE":"CO","ZIP":81650,"GHG_QUANTITY":156815,"TYPE":"fc"},"geometry":{"type":"Point","coordinates":[-107.763621,39.977742]}},{"type":"Feature","properties":{"FACILITY_NAME":"Wattenberg Gas Plant","GHGRP_ID":1003254,"ADDRESS":"1909 Powhaton Road","CITY":"Aurora","COUNTY NAME":"ADAMS","STATE":"CO","ZIP":80019,"GHG_QUANTITY":54436,"TYPE":"fc"},"geometry":{"type":"Point","coordinates":[-104.681535,39.746431]}},{"type":"Feature","properties":{"FACILITY_NAME":"West Elk Mine","GHGRP_ID":1010310,"ADDRESS":"5174 Highway 133","CITY":"Somerset","COUNTY NAME":"GUNNISON COUNTY","STATE":"CO","ZIP":81434,"GHG_QUANTITY":7292,"TYPE":"fc"},"geometry":{"type":"Point","coordinates":[-107.44687,38.92823]}},{"type":"Feature","properties":{"FACILITY_NAME":"XTO - HILL RANCH #1","GHGRP_ID":1005401,"ADDRESS":"","CITY":"COKEDALE","COUNTY NAME":"Las Animas","STATE":"CO","ZIP":81091,"GHG_QUANTITY":24358,"TYPE":"fc"},"geometry":{"type":"Point","coordinates":[-104.8765,37.0588]}},{"type":"Feature","properties":{"FACILITY_NAME":"XTO - PICEANCE CREEK","GHGRP_ID":1002673,"ADDRESS":"","CITY":"MEEKER","COUNTY NAME":"Rio Blanco","STATE":"CO","ZIP":81641,"GHG_QUANTITY":6933,"TYPE":"fc"},"geometry":{"type":"Point","coordinates":[-108.1947,39.8933]}},{"type":"Feature","properties":{"FACILITY_NAME":"YUMA ETHANOL, LLC","GHGRP_ID":1002083,"ADDRESS":"38480 COUNTY ROAD H","CITY":"YUMA","COUNTY NAME":"YUMA","STATE":"CO","ZIP":80759,"GHG_QUANTITY":49192,"TYPE":"fc"},"geometry":{"type":"Point","coordinates":[-102.68,40.13]}},{"type":"Feature","properties":{"FACILITY_NAME":"Zuni","GHGRP_ID":1001464,"ADDRESS":"1335 ZUNI ST","CITY":"DENVER","COUNTY NAME":"Denver","STATE":"CO","ZIP":80204,"GHG_QUANTITY":23647,"TYPE":"fc"},"geometry":{"type":"Point","coordinates":[-105.0169,39.7369]}}]}